[{"OBJECT_NAME":"IHOPSAT-TD","OBJECT_ID":"2019-089H","EPOCH":"2026-03-09T00:09:00.873504","MEAN_MOTION":15.11211987,"ECCENTRICITY":0.00040442,"INCLINATION":36.9662,"RA_OF_ASC_NODE":282.0238,"ARG_OF_PERICENTER":141.2084,"MEAN_ANOMALY":218.8952,"EPHEMERIS_TYPE":0,"CLASSIFICATION_TYPE":"U","NORAD_CAT_ID":44859,"ELEMENT_SET_NO":999,"REV_AT_EPOCH":34282,"BSTAR":0.00027431478,"MEAN_MOTION_DOT":4.62e-5,"MEAN_MOTION_DDOT":0},{"OBJECT_NAME":"STARLINK-6079","OBJECT_ID":"2023-046AD","EPOCH":"2026-03-09T22:00:01.999584","MEAN_MOTION":15.12009533,"ECCENTRICITY":0.00021275,"INCLINATION":42.9999,"RA_OF_ASC_NODE":144.8653,"ARG_OF_PERICENTER":279.9267,"MEAN_ANOMALY":119.034,"EPHEMERIS_TYPE":0,"CLASSIFICATION_TYPE":"U","NORAD_CAT_ID":56120,"ELEMENT_SET_NO":999,"REV_AT_EPOCH":572,"BSTAR":0.00036558396,"MEAN_MOTION_DOT":6.172e-5,"MEAN_MOTION_DDOT":0}]
